{"type": "FeatureCollection", "features": [{"type": "Feature", "properties": {"norad_id": 22490, "name": "SCD 1", "group": "resource", "lat": 17.66825945841601, "lon": 60.3882211884986, "alt_km": 763.8952679486301, "timestamp": "2025-12-11T22:43:46.927733+00:00", "meta": {"OBJECT_NAME": "SCD 1", "OBJECT_ID": "1993-009B", "EPOCH": "2025-12-11T12:55:07.740192", "MEAN_MOTION": 14.45998002, "ECCENTRICITY": 0.00417687, "INCLINATION": 24.9701, "RA_OF_ASC_NODE": 286.1042, "ARG_OF_PERICENTER": 312.2603, "MEAN_ANOMALY": 209.3801, "EPHEMERIS_TYPE": 0, "CLASSIFICATION_TYPE": "U", "NORAD_CAT_ID": 22490, "ELEMENT_SET_NO": 999, "REV_AT_EPOCH": 73392, "BSTAR": 0.00016120503, "MEAN_MOTION_DOT": 7.75e-06, "MEAN_MOTION_DDOT": 0}, "tle": {"line1": "1 22490U 93009B   25345.53828403  .00000775  00000+0  16121-3 0  9992", "line2": "2 22490  24.9701 286.1042 0041768 312.2603 209.3801 14.45998002733927"}}, "geometry": {"type": "Point", "coordinates": [60.3882211884986, 17.66825945841601]}}, {"type": "Feature", "properties": {"norad_id": 25397, "name": "TECHSAT 1B (GO-32)", "group": "resource", "lat": 65.13585882902808, "lon": -50.83818332328662, "alt_km": 802.7100380823022, "timestamp": "2025-12-11T22:43:46.927779+00:00", "meta": {"OBJECT_NAME": "TECHSAT 1B (GO-32)", "OBJECT_ID": "1998-043D", "EPOCH": "2025-12-11T10:36:59.205024", "MEAN_MOTION": 14.24376547, "ECCENTRICITY": 0.00020891, "INCLINATION": 98.9919, "RA_OF_ASC_NODE": 328.6245, "ARG_OF_PERICENTER": 59.4694, "MEAN_ANOMALY": 300.669, "EPHEMERIS_TYPE": 0, "CLASSIFICATION_TYPE": "U", "NORAD_CAT_ID": 25397, "ELEMENT_SET_NO": 999, "REV_AT_EPOCH": 42460, "BSTAR": 9.8256791e-05, "MEAN_MOTION_DOT": 1.81e-06, "MEAN_MOTION_DDOT": 0}, "tle": {"line1": "1 25397U 98043D   25345.44235191  .00000181  00000+0  98257-4 0  9992", "line2": "2 25397  98.9919 328.6245 0002089  59.4694 300.6690 14.24376547424602"}}, "geometry": {"type": "Point", "coordinates": [-50.83818332328662, 65.13585882902808]}}, {"type": "Feature", "properties": {"norad_id": 25504, "name": "SCD 2", "group": "resource", "lat": 5.208149165601242, "lon": -44.4985153318789, "alt_km": 746.6768422018231, "timestamp": "2025-12-11T22:43:46.927797+00:00", "meta": {"OBJECT_NAME": "SCD 2", "OBJECT_ID": "1998-060A", "EPOCH": "2025-12-11T15:42:46.829952", "MEAN_MOTION": 14.45422478, "ECCENTRICITY": 0.00166226, "INCLINATION": 24.9932, "RA_OF_ASC_NODE": 148.5866, "ARG_OF_PERICENTER": 302.0387, "MEAN_ANOMALY": 141.2259, "EPHEMERIS_TYPE": 0, "CLASSIFICATION_TYPE": "U", "NORAD_CAT_ID": 25504, "ELEMENT_SET_NO": 999, "REV_AT_EPOCH": 43316, "BSTAR": 0.00011851598, "MEAN_MOTION_DOT": 6.06e-06, "MEAN_MOTION_DDOT": 0}, "tle": {"line1": "1 25504U 98060A   25345.65470868  .00000606  00000+0  11852-3 0  9993", "line2": "2 25504  24.9932 148.5866 0016622 302.0387 141.2259 14.45422478433167"}}, "geometry": {"type": "Point", "coordinates": [-44.4985153318789, 5.208149165601242]}}, {"type": "Feature", "properties": {"norad_id": 25757, "name": "DLR-TUBSAT", "group": "resource", "lat": -25.185828363587948, "lon": 146.3281294148037, "alt_km": 713.8856909398346, "timestamp": "2025-12-11T22:43:46.927811+00:00", "meta": {"OBJECT_NAME": "DLR-TUBSAT", "OBJECT_ID": "1999-029B", "EPOCH": "2025-12-11T11:51:58.221504", "MEAN_MOTION": 14.52357072, "ECCENTRICITY": 0.00138201, "INCLINATION": 98.6562, "RA_OF_ASC_NODE": 329.9697, "ARG_OF_PERICENTER": 196.6702, "MEAN_ANOMALY": 163.404, "EPHEMERIS_TYPE": 0, "CLASSIFICATION_TYPE": "U", "NORAD_CAT_ID": 25757, "ELEMENT_SET_NO": 999, "REV_AT_EPOCH": 40600, "BSTAR": 7.8468437e-05, "MEAN_MOTION_DOT": 2.71e-06, "MEAN_MOTION_DDOT": 0}, "tle": {"line1": "1 25757U 99029B   25345.49442386  .00000271  00000+0  78468-4 0  9990", "line2": "2 25757  98.6562 329.9697 0013820 196.6702 163.4040 14.52357072406008"}}, "geometry": {"type": "Point", "coordinates": [146.3281294148037, -25.185828363587948]}}, {"type": "Feature", "properties": {"norad_id": 25994, "name": "TERRA", "group": "resource", "lat": -63.198377728786596, "lon": -158.45098050174366, "alt_km": 699.6368061600442, "timestamp": "2025-12-11T22:43:46.927824+00:00", "meta": {"OBJECT_NAME": "TERRA", "OBJECT_ID": "1999-068A", "EPOCH": "2025-12-11T15:44:02.469696", "MEAN_MOTION": 14.60899989, "ECCENTRICITY": 0.00036048, "INCLINATION": 97.9751, "RA_OF_ASC_NODE": 37.3799, "ARG_OF_PERICENTER": 96.656, "MEAN_ANOMALY": 55.5117, "EPHEMERIS_TYPE": 0, "CLASSIFICATION_TYPE": "U", "NORAD_CAT_ID": 25994, "ELEMENT_SET_NO": 999, "REV_AT_EPOCH": 38222, "BSTAR": 0.00016839733, "MEAN_MOTION_DOT": 7.8e-06, "MEAN_MOTION_DDOT": 0}, "tle": {"line1": "1 25994U 99068A   25345.65558414  .00000780  00000+0  16840-3 0  9994", "line2": "2 25994  97.9751  37.3799 0003604  96.6560  55.5117 14.60899989382226"}}, "geometry": {"type": "Point", "coordinates": [-158.45098050174366, -63.198377728786596]}}, {"type": "Feature", "properties": {"norad_id": 27004, "name": "MAROC-TUBSAT", "group": "resource", "lat": 47.910875982781825, "lon": -14.600580680796828, "alt_km": 1003.5492146892075, "timestamp": "2025-12-11T22:43:46.927837+00:00", "meta": {"OBJECT_NAME": "MAROC-TUBSAT", "OBJECT_ID": "2001-056D", "EPOCH": "2025-12-11T11:55:26.037696", "MEAN_MOTION": 13.70252807, "ECCENTRICITY": 0.00190937, "INCLINATION": 99.7912, "RA_OF_ASC_NODE": 153.92, "ARG_OF_PERICENTER": 263.4496, "MEAN_ANOMALY": 167.9379, "EPHEMERIS_TYPE": 0, "CLASSIFICATION_TYPE": "U", "NORAD_CAT_ID": 27004, "ELEMENT_SET_NO": 999, "REV_AT_EPOCH": 20048, "BSTAR": 4.7194836e-05, "MEAN_MOTION_DOT": -5e-08, "MEAN_MOTION_DDOT": 0}, "tle": {"line1": "1 27004U 01056D   25345.49682914 -.00000005  00000+0  47195-4 0  9992", "line2": "2 27004  99.7912 153.9200 0019093 263.4496 167.9379 13.70252807200489"}}, "geometry": {"type": "Point", "coordinates": [-14.600580680796828, 47.910875982781825]}}, {"type": "Feature", "properties": {"norad_id": 27424, "name": "AQUA", "group": "resource", "lat": 62.04857285030745, "lon": 142.9897303920624, "alt_km": 680.5595016794323, "timestamp": "2025-12-11T22:43:46.927850+00:00", "meta": {"OBJECT_NAME": "AQUA", "OBJECT_ID": "2002-022A", "EPOCH": "2025-12-11T14:30:45.268704", "MEAN_MOTION": 14.61804948, "ECCENTRICITY": 0.0001038, "INCLINATION": 98.4037, "RA_OF_ASC_NODE": 306.4652, "ARG_OF_PERICENTER": 115.2833, "MEAN_ANOMALY": 0.7096, "EPHEMERIS_TYPE": 0, "CLASSIFICATION_TYPE": "U", "NORAD_CAT_ID": 27424, "ELEMENT_SET_NO": 999, "REV_AT_EPOCH": 25586, "BSTAR": 0.00036937075, "MEAN_MOTION_DOT": 1.795e-05, "MEAN_MOTION_DDOT": 0}, "tle": {"line1": "1 27424U 02022A   25345.60469061  .00001795  00000+0  36937-3 0  9998", "line2": "2 27424  98.4037 306.4652 0001038 115.2833   0.7096 14.61804948255866"}}, "geometry": {"type": "Point", "coordinates": [142.9897303920624, 62.04857285030745]}}, {"type": "Feature", "properties": {"norad_id": 28051, "name": "IRS-P6 (RESOURCESAT-1)", "group": "resource", "lat": 53.06830631883301, "lon": 15.306396476573951, "alt_km": 795.2150650174826, "timestamp": "2025-12-11T22:43:46.927861+00:00", "meta": {"OBJECT_NAME": "IRS-P6 (RESOURCESAT-1)", "OBJECT_ID": "2003-046A", "EPOCH": "2025-12-11T14:52:09.570144", "MEAN_MOTION": 14.36074938, "ECCENTRICITY": 0.00640333, "INCLINATION": 98.2176, "RA_OF_ASC_NODE": 26.078, "ARG_OF_PERICENTER": 184.0313, "MEAN_ANOMALY": 338.2396, "EPHEMERIS_TYPE": 0, "CLASSIFICATION_TYPE": "U", "NORAD_CAT_ID": 28051, "ELEMENT_SET_NO": 999, "REV_AT_EPOCH": 15360, "BSTAR": 0.00019805178, "MEAN_MOTION_DOT": 5.49e-06, "MEAN_MOTION_DDOT": 0}, "tle": {"line1": "1 28051U 03046A   25345.61955521  .00000549  00000+0  19805-3 0  9995", "line2": "2 28051  98.2176  26.0780 0064033 184.0313 338.2396 14.36074938153604"}}, "geometry": {"type": "Point", "coordinates": [15.306396476573951, 53.06830631883301]}}, {"type": "Feature", "properties": {"norad_id": 28220, "name": "SHIYAN-1 (SY-1)", "group": "resource", "lat": 25.44942806224, "lon": 43.65230073831026, "alt_km": 478.5798656974175, "timestamp": "2025-12-11T22:43:46.927873+00:00", "meta": {"OBJECT_NAME": "SHIYAN-1 (SY-1)", "OBJECT_ID": "2004-012A", "EPOCH": "2025-12-11T10:02:42.167904", "MEAN_MOTION": 15.28090216, "ECCENTRICITY": 0.00056618, "INCLINATION": 97.8931, "RA_OF_ASC_NODE": 46.8783, "ARG_OF_PERICENTER": 331.221, "MEAN_ANOMALY": 28.8715, "EPHEMERIS_TYPE": 0, "CLASSIFICATION_TYPE": "U", "NORAD_CAT_ID": 28220, "ELEMENT_SET_NO": 999, "REV_AT_EPOCH": 18236, "BSTAR": 0.00087047445, "MEAN_MOTION_DOT": 0.00023824, "MEAN_MOTION_DDOT": 0}, "tle": {"line1": "1 28220U 04012A   25345.41854361  .00023824  00000+0  87047-3 0  9999", "line2": "2 28220  97.8931  46.8783 0005661 331.2210  28.8715 15.28090216182364"}}, "geometry": {"type": "Point", "coordinates": [43.65230073831026, 25.44942806224]}}, {"type": "Feature", "properties": {"norad_id": 28376, "name": "AURA", "group": "resource", "lat": -68.87046632674513, "lon": 93.92401602999021, "alt_km": 698.1771000930312, "timestamp": "2025-12-11T22:43:46.927885+00:00", "meta": {"OBJECT_NAME": "AURA", "OBJECT_ID": "2004-026A", "EPOCH": "2025-12-11T15:00:42.237504", "MEAN_MOTION": 14.60942804, "ECCENTRICITY": 0.00012131, "INCLINATION": 98.3183, "RA_OF_ASC_NODE": 295.8469, "ARG_OF_PERICENTER": 94.0906, "MEAN_ANOMALY": 266.0433, "EPHEMERIS_TYPE": 0, "CLASSIFICATION_TYPE": "U", "NORAD_CAT_ID": 28376, "ELEMENT_SET_NO": 999, "REV_AT_EPOCH": 13882, "BSTAR": 0.00037529795, "MEAN_MOTION_DOT": 1.791e-05, "MEAN_MOTION_DDOT": 0}, "tle": {"line1": "1 28376U 04026A   25345.62548886  .00001791  00000+0  37530-3 0  9992", "line2": "2 28376  98.3183 295.8469 0001213  94.0906 266.0433 14.60942804138822"}}, "geometry": {"type": "Point", "coordinates": [93.92401602999021, -68.87046632674513]}}]}